satname,norad_id,inclination_deg,eccentricity,mean_motion_rev_per_day,perigee_km,apogee_km,l1,l2
STARLINK-1008,44714,53.0543,0.0001405,15.06404796,546.2238495208467,548.169868335206,1 44714U 19074B   26009.52350070  .00000023  00000+0  20413-4 0  9998,2 44714  53.0543  92.2276 0001405  92.0207 268.0943 15.06404796339830
STARLINK-1012,44718,53.0553,0.0001469,15.06394504,546.2110662603036,548.2457386155402,1 44718U 19074F   26009.43504485  .00000717  00000+0  67042-4 0  9992,2 44718  53.0553  92.6233 0001469  86.4631 273.6526 15.06394504339812
STARLINK-1017,44723,53.0511,0.0002066,15.19686096,505.3661179763876,508.2109692109998,1 44723U 19074L   26009.49734383  .00024399  00000+0  11400-2 0  9993,2 44723  53.0511  83.5581 0002066 147.0107 213.1017 15.19686096339956
STARLINK-1019,44724,53.0489,0.0007164,15.62928532,374.36189190054847,384.0438084378702,1 44724U 19074M   26009.43198095  .00128457  00000+0  13758-2 0  9990,2 44724  53.0489  70.6777 0007164 343.3536  16.7241 15.62928532340125
STARLINK-1020,44725,53.0551,0.0001204,15.06399547,546.3791341848437,548.0467584519174,1 44725U 19074N   26009.56957829 -.00000401  00000+0 -80438-5 0  9995,2 44725  53.0551 112.0205 0001204  85.9251 274.1876 15.06399547339550
STARLINK-1031,44736,53.0472,0.0003231,15.67343377,364.32844510051746,368.6868344667455,1 44736U 19074Z   26009.91668980  .00150830  00000+0  13519-2 0  9996,2 44736  53.0472  54.3514 0003231  22.7345 173.0942 15.67343377  5941
STARLINK-1036,44741,53.0535,0.0001262,15.25746493,487.67819763439365,489.41134811386655,1 44741U 19074AE  26009.91668980  .01675341  00000+0  58537-1 0  9990,2 44741  53.0535 109.6644 0001262  61.8930 271.7236 15.25746493  5730
STARLINK-1039,44744,53.0508,0.0002587,15.16979369,513.1926517973661,516.7591484118802,1 44744U 19074AH  26009.60027425  .00044475  00000+0  22269-2 0  9993,2 44744  53.0508 125.6458 0002587  50.3075 309.8146 15.16979369339371
STARLINK-1042,44747,53.0465,0.0003002,15.46642284,424.5140470092974,428.5995851764801,1 44747U 19074AL  26009.26384001  .00023447  00000+0  46974-3 0  9990,2 44747  53.0465  19.2155 0003002  20.7950 339.3178 15.46642284340869
STARLINK-1043,44748,53.0543,0.0001445,15.47531936,422.96572313869547,424.9315258841798,1 44748U 19074AM  26009.57247208  .00025479  00000+0  49425-3 0  9993,2 44748  53.0543 118.6234 0001445 266.4821  93.6021 15.47531936339478
STARLINK-1046,44751,53.054,0.000136,15.34587302,461.21631724556664,463.0768743836279,1 44751U 19074AQ  26009.91668980  .01742516  00000+0  46220-1 0  9996,2 44751  53.0540 128.9112 0001360 100.9316 331.2185 15.34587302  5774
STARLINK-1047,44752,53.0709,0.000387,15.31083493,469.92716029623807,475.2296140058925,1 44752U 19074AR  26009.45017065  .00009370  00000+0  31931-3 0  9996,2 44752  53.0709  62.4320 0003870  47.2826 312.8499 15.31083493340260
STARLINK-1048,44753,53.0542,0.0001644,15.29448369,476.33316295683017,478.58728332379906,1 44753U 19074AS  26009.91668980  .01766435  00000+0  54884-1 0  9999,2 44753  53.0542  89.3325 0001644  98.5968 335.9488 15.29448369  5831
STARLINK-1053,44758,53.0381,0.0003215,15.72263786,350.26480911044564,354.5925628465302,1 44758U 19074AX  26009.29601708  .00104685  00000+0  77086-3 0  9993,2 44758  53.0381  21.7524 0003215  42.7457 317.3810 15.72263786340817
STARLINK-1060,44765,53.0428,0.0003714,15.87568977,306.61723831782456,311.5845186139486,1 44765U 19074BE  26009.91668980  .00232851  00000+0  83711-3 0  9994,2 44765  53.0428  60.8707 0003714 324.6366 353.1971 15.87568977  6045
STARLINK-1063,44768,53.0547,0.0001345,15.06391004,546.3076664304081,548.1705926092482,1 44768U 19074BH  26009.64145933 -.00000089  00000+0  12931-4 0  9999,2 44768  53.0547 131.6985 0001345  92.4349 267.6794 15.06391004339300
STARLINK-1067,44771,53.055,0.0001835,15.43759763,433.77448745751553,436.2749178023805,1 44771U 19074BL  26009.64231634  .00106356  00000+0  22930-2 0  9998,2 44771  53.0550 127.6070 0001835  19.5013 340.6062 15.43759763339356
STARLINK-1068,44772,53.0524,0.000605,15.43986432,430.2363108023701,438.47942959530974,1 44772U 19074BM  26009.56931690  .00087260  00000+0  18723-2 0  9996,2 44772  53.0524 105.8482 0006050 359.3881   0.7116 15.43986432339646
STARLINK-1112,44925,53.0443,0.0005252,15.74368575,342.8968332538925,349.9603169339707,1 44925U 20001M   26009.91668980  .00194950  00000+0  12939-2 0  9994,2 44925  53.0443 179.8618 0005252 142.9341 127.7209 15.74368575  5951
STARLINK-1114,44927,53.0598,0.0001513,15.31758775,469.52858702971935,471.6010041930713,1 44927U 20001P   26009.91668980  .01047854  00000+0  30911-1 0  9996,2 44927  53.0598 249.1583 0001513  84.8972 180.8997 15.31758775  5835
STARLINK-1123,44930,53.0539,0.0001445,15.06419194,546.1520273511051,548.1534360835722,1 44930U 20001S   26009.40925210  .00006581  00000+0  46004-3 0  9999,2 44930  53.0539 252.7390 0001445  89.1639 270.9515 15.06419194330910
STARLINK-1144,44933,53.0343,0.0004316,15.86419247,309.44385571597286,315.21906809228767,1 44933U 20001V   26009.91668980  .00147059  00000+0  56577-3 0  9998,2 44933  53.0343 152.1511 0004316 315.9051  99.8405 15.86419247  5891
STARLINK-1094,44941,53.0546,0.0001453,15.0639408,546.2234461632697,548.2359577268553,1 44941U 20001AD  26009.35580469  .00001875  00000+0  14475-3 0  9996,2 44941  53.0546 232.9806 0001453  87.0152 273.1003 15.06394080331181
STARLINK-1122,44949,53.054,0.0001335,15.06397512,546.2946482599627,548.143718360906,1 44949U 20001AM  26009.31156472 -.00000247  00000+0  23023-5 0  9997,2 44949  53.0540 233.1754 0001335  88.6095 271.5047 15.06397512331172
STARLINK-1080,44961,53.0551,0.0001051,15.38630742,449.43975203121227,450.875059515306,1 44961U 20001AZ  26008.82837807  .00086346  00000+0  22146-2 0  9999,2 44961  53.0551 212.3640 0001051 115.7551 244.3561 15.38630742331433
STARLINK-1090,44968,53.0547,0.0001481,15.06393775,546.204989785414,548.2562836794141,1 44968U 20001BG  26008.84897947  .00000263  00000+0  36561-4 0  9991,2 44968  53.0547 215.2528 0001481  89.7956 270.3202 15.06393775331391
STARLINK-1132,45044,53.1081,0.000158,15.18648269,508.836592665275,511.01322022771274,1 45044U 20006A   26009.91668980  .01411687  00000+0  61726-1 0  9999,2 45044  53.1081 170.1834 0001580  60.9081 348.8809 15.18648269  5475
STARLINK-1131,45047,53.0554,0.0001667,15.06393089,546.0782801033602,548.387198374422,1 45047U 20006D   26009.64705057  .00001620  00000+0  12762-3 0  9998,2 45047  53.0554 192.2142 0001667  86.8340 273.2840 15.06393089327556
STARLINK-1134,45048,53.0336,0.000327,15.36024194,455.6446700716433,460.11542522080435,1 45048U 20006E   26009.91668980  .00063096  00000+0  17686-2 0  9996,2 45048  53.0336 156.1824 0003270  57.4246  85.1701 15.36024194  5912
STARLINK-1156,45054,53.0558,0.0001366,15.06390049,546.2960497088443,548.1880632670782,1 45054U 20006L   26009.21943007  .00001593  00000+0  12583-3 0  9998,2 45054  53.0558 193.5925 0001366  93.3021 266.8124 15.06390049327495
STARLINK-1159,45057,53.0503,0.0003779,15.6295864,376.5625040995801,381.6696359699117,1 45057U 20006P   26009.91668980  .00166187  00000+0  17694-2 0  9990,2 45057  53.0503 166.3555 0003779 183.8168 289.4533 15.62958640  5938
STARLINK-1166,45060,53.0541,0.0001167,15.17504001,512.5828414615062,514.19132318232,1 45060U 20006S   26009.91668980  .01113517  00000+0  50627-1 0  9996,2 45060  53.0541 190.2178 0001167  80.5909  89.5762 15.17504001  5735
STARLINK-1169,45061,53.0552,0.0001636,15.06394495,546.0954402374418,548.361419806145,1 45061U 20006T   26009.65067174  .00000792  00000+0  72052-4 0  9994,2 45061  53.0552 191.6572 0001636  89.2703 270.8473 15.06394495327564
STARLINK-1171,45062,53.051,0.0011284,15.45154937,423.239515330416,438.6062016190217,1 45062U 20006U   26009.91668980  .00144287  00000+0  29435-2 0  9999,2 45062  53.0510 172.1638 0011284 158.4041 286.8525 15.45154937  5881
STARLINK-1133,45064,53.0914,0.000176,15.15287837,518.8907592967598,521.3189404279101,1 45064U 20006W   26009.91668980  .01415009  00000+0  68059-1 0  9999,2 45064  53.0914 170.3068 0001760  74.2293  26.5248 15.15287837  5783
STARLINK-1167,45071,53.1037,9.25e-05,15.17443816,512.9318198039064,514.2067854698953,1 45071U 20006AD  26009.91668980  .01316164  00000+0  59920-1 0  9996,2 45071  53.1037 170.2074 0000925  80.3034 294.2057 15.17443816  5737
STARLINK-1168,45072,53.1,6.96e-05,15.16695835,515.355127304706,516.3147681998335,1 45072U 20006AE  26009.91668980  .01466304  00000+0  67548-1 0  9994,2 45072  53.1000 170.2596 0000696 103.3853 222.4358 15.16695835  5542
STARLINK-1172,45074,53.0873,0.000194,15.14520542,521.0958266120933,523.7732483686405,1 45074U 20006AG  26009.91668980  .01539908  00000+0  75087-1 0  9994,2 45074  53.0873 170.3404 0001940 105.6566 116.0172 15.14520542  5787
STARLINK-1153,45080,53.1072,0.0001633,15.1837554,509.62474412867687,511.8746545246777,1 45080U 20006AN  26009.91668980  .01403092  00000+0  61866-1 0  9995,2 45080  53.1072 170.1929 0001633  61.9993   1.9559 15.18375540  5830
STARLINK-1151,45081,53.0527,0.0003061,15.46918579,423.66386601958766,427.82920351957364,1 45081U 20006AP  26009.91668980  .00129313  00000+0  24936-2 0  9994,2 45081  53.0527 163.5627 0003061 285.1255  38.7377 15.46918579  5667
STARLINK-1185,45087,53.0564,0.000145,15.06360029,546.3298727007013,548.3382593098431,1 45087U 20006AV  26009.62859206 -.00003580  00000+0 -22182-3 0  9992,2 45087  53.0564 151.7567 0001450  99.1505 260.9648 15.06360029328123
STARLINK-1183,45088,53.0546,0.0014839,15.04454397,542.8955935064942,563.4663589964139,1 45088U 20006AW  26009.65228005 -.00248820  00000+0 -18151-1 0  9990,2 45088  53.0546 151.6664 0014839  65.4796 294.7737 15.04454397328128
STARLINK-1152,45096,53.0409,0.0002555,15.31817471,468.64004405755077,472.1396412741524,1 45096U 20006BE  26009.60082819  .00083823  00000+0  26726-2 0  9991,2 45096  53.0409 123.6385 0002555  54.1888 305.9349 15.31817471328516
